CCSDS_OMM_VERS = 2.0
CREATION_DATE  = 
ORIGINATOR     = 

OBJECT_NAME    = STARLINK-36221
OBJECT_ID      = 2025-304Z
CENTER_NAME    = EARTH
REF_FRAME      = TEME
TIME_SYSTEM    = UTC
MEAN_ELEMENT_THEORY = SGP/SGP4

EPOCH          = 2026-01-11T22:59:13.480224
MEAN_MOTION    = 15.52523308
ECCENTRICITY   = .0003156
INCLINATION    = 69.9997
RA_OF_ASC_NODE = 322.8217
ARG_OF_PERICENTER = 268.9066
MEAN_ANOMALY   = 91.1760

EPHEMERIS_TYPE = 0
CLASSIFICATION_TYPE = U
NORAD_CAT_ID   = 67215
ELEMENT_SET_NO = 999
REV_AT_EPOCH   = 525
BSTAR          = .15122761E-2
MEAN_MOTION_DOT = .93989E-3
MEAN_MOTION_DDOT = 0

CCSDS_OMM_VERS = 2.0
CREATION_DATE  = 
ORIGINATOR     = 

OBJECT_NAME    = STARLINK-36212
OBJECT_ID      = 2025-304AA
CENTER_NAME    = EARTH
REF_FRAME      = TEME
TIME_SYSTEM    = UTC
MEAN_ELEMENT_THEORY = SGP/SGP4

EPOCH          = 2026-01-11T22:58:43.769856
MEAN_MOTION    = 15.52511567
ECCENTRICITY   = .00032936
INCLINATION    = 69.9999
RA_OF_ASC_NODE = 322.8208
ARG_OF_PERICENTER = 268.3241
MEAN_ANOMALY   = 91.7569

EPHEMERIS_TYPE = 0
CLASSIFICATION_TYPE = U
NORAD_CAT_ID   = 67216
ELEMENT_SET_NO = 999
REV_AT_EPOCH   = 525
BSTAR          = .82300512E-3
MEAN_MOTION_DOT = .50775E-3
MEAN_MOTION_DDOT = 0

CCSDS_OMM_VERS = 2.0
CREATION_DATE  = 
ORIGINATOR     = 

OBJECT_NAME    = STARLINK-36216
OBJECT_ID      = 2025-304AB
CENTER_NAME    = EARTH
REF_FRAME      = TEME
TIME_SYSTEM    = UTC
MEAN_ELEMENT_THEORY = SGP/SGP4

EPOCH          = 2026-01-11T22:58:13.959264
MEAN_MOTION    = 15.52533002
ECCENTRICITY   = .00033892
INCLINATION    = 69.9997
RA_OF_ASC_NODE = 322.8189
ARG_OF_PERICENTER = 266.8169
MEAN_ANOMALY   = 93.2630

EPHEMERIS_TYPE = 0
CLASSIFICATION_TYPE = U
NORAD_CAT_ID   = 67217
ELEMENT_SET_NO = 999
REV_AT_EPOCH   = 525
BSTAR          = .16553123E-2
MEAN_MOTION_DOT = .103051E-2
MEAN_MOTION_DDOT = 0

CCSDS_OMM_VERS = 2.0
CREATION_DATE  = 
ORIGINATOR     = 

OBJECT_NAME    = STARLINK-36211
OBJECT_ID      = 2025-304AC
CENTER_NAME    = EARTH
REF_FRAME      = TEME
TIME_SYSTEM    = UTC
MEAN_ELEMENT_THEORY = SGP/SGP4

EPOCH          = 2026-01-11T22:57:44.441568
MEAN_MOTION    = 15.52511934
ECCENTRICITY   = .00035455
INCLINATION    = 69.9998
RA_OF_ASC_NODE = 322.8178
ARG_OF_PERICENTER = 267.6176
MEAN_ANOMALY   = 92.4605

EPHEMERIS_TYPE = 0
CLASSIFICATION_TYPE = U
NORAD_CAT_ID   = 67218
ELEMENT_SET_NO = 999
REV_AT_EPOCH   = 522
BSTAR          = .6476727E-3
MEAN_MOTION_DOT = .39869E-3
MEAN_MOTION_DDOT = 0

CCSDS_OMM_VERS = 2.0
CREATION_DATE  = 
ORIGINATOR     = 

OBJECT_NAME    = DISKSAT C
OBJECT_ID      = 2025-305A
CENTER_NAME    = EARTH
REF_FRAME      = TEME
TIME_SYSTEM    = UTC
MEAN_ELEMENT_THEORY = SGP/SGP4

EPOCH          = 2026-01-11T20:48:05.985216
MEAN_MOTION    = 15.06359702
ECCENTRICITY   = .00021145
INCLINATION    = 45.0017
RA_OF_ASC_NODE = 191.3154
ARG_OF_PERICENTER = 8.4537
MEAN_ANOMALY   = 351.6373

EPHEMERIS_TYPE = 0
CLASSIFICATION_TYPE = U
NORAD_CAT_ID   = 67219
ELEMENT_SET_NO = 999
REV_AT_EPOCH   = 372
BSTAR          = .80756288E-3
MEAN_MOTION_DOT = .11853E-3
MEAN_MOTION_DDOT = 0

CCSDS_OMM_VERS = 2.0
CREATION_DATE  = 
ORIGINATOR     = 

OBJECT_NAME    = DISKSAT B
OBJECT_ID      = 2025-305B
CENTER_NAME    = EARTH
REF_FRAME      = TEME
TIME_SYSTEM    = UTC
MEAN_ELEMENT_THEORY = SGP/SGP4

EPOCH          = 2026-01-11T20:49:16.657824
MEAN_MOTION    = 15.06291911
ECCENTRICITY   = .00018553
INCLINATION    = 45.0012
RA_OF_ASC_NODE = 191.3204
ARG_OF_PERICENTER = 13.4661
MEAN_ANOMALY   = 346.6263

EPHEMERIS_TYPE = 0
CLASSIFICATION_TYPE = U
NORAD_CAT_ID   = 67220
ELEMENT_SET_NO = 999
REV_AT_EPOCH   = 372
BSTAR          = .68294204E-3
MEAN_MOTION_DOT = .9965E-4
MEAN_MOTION_DDOT = 0

CCSDS_OMM_VERS = 2.0
CREATION_DATE  = 
ORIGINATOR     = 

OBJECT_NAME    = DISKSAT D
OBJECT_ID      = 2025-305C
CENTER_NAME    = EARTH
REF_FRAME      = TEME
TIME_SYSTEM    = UTC
MEAN_ELEMENT_THEORY = SGP/SGP4

EPOCH          = 2026-01-11T20:50:20.528160
MEAN_MOTION    = 15.06260044
ECCENTRICITY   = .00022041
INCLINATION    = 45.0015
RA_OF_ASC_NODE = 191.3261
ARG_OF_PERICENTER = 23.2498
MEAN_ANOMALY   = 336.8477

EPHEMERIS_TYPE = 0
CLASSIFICATION_TYPE = U
NORAD_CAT_ID   = 67221
ELEMENT_SET_NO = 999
REV_AT_EPOCH   = 372
BSTAR          = .69635093E-3
MEAN_MOTION_DOT = .10157E-3
MEAN_MOTION_DDOT = 0

CCSDS_OMM_VERS = 2.0
CREATION_DATE  = 
ORIGINATOR     = 

OBJECT_NAME    = DISKSAT A
OBJECT_ID      = 2025-305D
CENTER_NAME    = EARTH
REF_FRAME      = TEME
TIME_SYSTEM    = UTC
MEAN_ELEMENT_THEORY = SGP/SGP4

EPOCH          = 2026-01-11T22:27:27.119520
MEAN_MOTION    = 15.06221951
ECCENTRICITY   = .00021159
INCLINATION    = 45.0018
RA_OF_ASC_NODE = 190.9837
ARG_OF_PERICENTER = 31.0410
MEAN_ANOMALY   = 329.0590

EPHEMERIS_TYPE = 0
CLASSIFICATION_TYPE = U
NORAD_CAT_ID   = 67222
ELEMENT_SET_NO = 999
REV_AT_EPOCH   = 372
BSTAR          = .77033205E-3
MEAN_MOTION_DOT = .11252E-3
MEAN_MOTION_DDOT = 0

CCSDS_OMM_VERS = 2.0
CREATION_DATE  = 
ORIGINATOR     = 

OBJECT_NAME    = ELECTRON KICK STAGE R/B
OBJECT_ID      = 2025-305E
CENTER_NAME    = EARTH
REF_FRAME      = TEME
TIME_SYSTEM    = UTC
MEAN_ELEMENT_THEORY = SGP/SGP4

EPOCH          = 2026-01-11T20:52:31.279008
MEAN_MOTION    = 15.53362512
ECCENTRICITY   = .01638763
INCLINATION    = 44.9833
RA_OF_ASC_NODE = 182.0943
ARG_OF_PERICENTER = 282.1545
MEAN_ANOMALY   = 76.1033

EPHEMERIS_TYPE = 0
CLASSIFICATION_TYPE = U
NORAD_CAT_ID   = 67223
ELEMENT_SET_NO = 999
REV_AT_EPOCH   = 383
BSTAR          = .96572339E-3
MEAN_MOTION_DOT = .111712E-2
MEAN_MOTION_DDOT = .11696371E-4

CCSDS_OMM_VERS = 2.0
CREATION_DATE  = 
ORIGINATOR     = 

OBJECT_NAME    = TJS-23
OBJECT_ID      = 2025-306A
CENTER_NAME    = EARTH
REF_FRAME      = TEME
TIME_SYSTEM    = UTC
MEAN_ELEMENT_THEORY = SGP/SGP4

EPOCH          = 2026-01-11T00:49:35.383584
MEAN_MOTION    = 1.00269249
ECCENTRICITY   = .00002787
INCLINATION    = 5.9454
RA_OF_ASC_NODE = 298.3006
ARG_OF_PERICENTER = 47.5896
MEAN_ANOMALY   = 312.5733

EPHEMERIS_TYPE = 0
CLASSIFICATION_TYPE = U
NORAD_CAT_ID   = 67226
ELEMENT_SET_NO = 999
REV_AT_EPOCH   = 31
BSTAR          = 0
MEAN_MOTION_DOT = .35E-6
MEAN_MOTION_DDOT = 0

CCSDS_OMM_VERS = 2.0
CREATION_DATE  = 
ORIGINATOR     = 

OBJECT_NAME    = CZ-5 R/B
OBJECT_ID      = 2025-306B
CENTER_NAME    = EARTH
REF_FRAME      = TEME
TIME_SYSTEM    = UTC
MEAN_ELEMENT_THEORY = SGP/SGP4

EPOCH          = 2026-01-08T23:16:58.378368
MEAN_MOTION    = 1.92448544
ECCENTRICITY   = .75784512
INCLINATION    = 16.3010
RA_OF_ASC_NODE = 292.5969
ARG_OF_PERICENTER = 190.8975
MEAN_ANOMALY   = 130.4185

EPHEMERIS_TYPE = 0
CLASSIFICATION_TYPE = U
NORAD_CAT_ID   = 67227
ELEMENT_SET_NO = 999
REV_AT_EPOCH   = 39
BSTAR          = .23703396E-2
MEAN_MOTION_DOT = .8924E-4
MEAN_MOTION_DDOT = 0

CCSDS_OMM_VERS = 2.0
CREATION_DATE  = 
ORIGINATOR     = 

OBJECT_NAME    = QPS-SAR-15
OBJECT_ID      = 2025-307A
CENTER_NAME    = EARTH
REF_FRAME      = TEME
TIME_SYSTEM    = UTC
MEAN_ELEMENT_THEORY = SGP/SGP4

EPOCH          = 2026-01-11T10:41:49.045920
MEAN_MOTION    = 14.97343212
ECCENTRICITY   = .00079802
INCLINATION    = 42.0081
RA_OF_ASC_NODE = 7.6581
ARG_OF_PERICENTER = 42.9192
MEAN_ANOMALY   = 317.2254

EPHEMERIS_TYPE = 0
CLASSIFICATION_TYPE = U
NORAD_CAT_ID   = 67228
ELEMENT_SET_NO = 999
REV_AT_EPOCH   = 317
BSTAR          = .53598371E-3
MEAN_MOTION_DOT = .6152E-4
MEAN_MOTION_DDOT = 0

