STARLINK-36221          
1 67215U 25304Z   26011.95779491  .00093989  00000+0  15123-2 0  9997
2 67215  69.9997 322.8217 0003156 268.9066  91.1760 15.52523308  5259
STARLINK-36212          
1 67216U 25304AA  26011.95745104  .00050775  00000+0  82301-3 0  9991
2 67216  69.9999 322.8208 0003293 268.3241  91.7569 15.52511567  5250
STARLINK-36216          
1 67217U 25304AB  26011.95710601  .00103051  00000+0  16553-2 0  9997
2 67217  69.9997 322.8189 0003389 266.8169  93.2630 15.52533002  5259
STARLINK-36211          
1 67218U 25304AC  26011.95676437  .00039869  00000+0  64767-3 0  9992
2 67218  69.9998 322.8178 0003545 267.6176  92.4605 15.52511934  5220
DISKSAT C               
1 67219U 25305A   26011.86673594  .00011853  00000+0  80756-3 0  9994
2 67219  45.0017 191.3154 0002114   8.4537 351.6373 15.06359702  3721
DISKSAT B               
1 67220U 25305B   26011.86755391  .00009965  00000+0  68294-3 0  9996
2 67220  45.0012 191.3204 0001855  13.4661 346.6263 15.06291911  3728
DISKSAT D               
1 67221U 25305C   26011.86829315  .00010157  00000+0  69635-3 0  9990
2 67221  45.0015 191.3261 0002204  23.2498 336.8477 15.06260044  3722
DISKSAT A               
1 67222U 25305D   26011.93573055  .00011252  00000+0  77033-3 0  9994
2 67222  45.0018 190.9837 0002115  31.0410 329.0590 15.06221951  3726
ELECTRON KICK STAGE R/B 
1 67223U 25305E   26011.86980647  .00111712  11696-4  96572-3 0  9995
2 67223  44.9833 182.0943 0163876 282.1545  76.1033 15.53362512  3835
TJS-23                  
1 67226U 25306A   26011.03443731  .00000035  00000+0  00000+0 0  9990
2 67226   5.9454 298.3006 0000278  47.5896 312.5733  1.00269249   317
CZ-5 R/B                
1 67227U 25306B   26008.97012012  .00008924  00000+0  23703-2 0  9997
2 67227  16.3010 292.5969 7578451 190.8975 130.4185  1.92448544   390
QPS-SAR-15              
1 67228U 25307A   26011.44570655  .00006152  00000+0  53598-3 0  9994
2 67228  42.0081   7.6581 0007980  42.9192 317.2254 14.97343212  3171
